{
    "links": {
        "self": "http://www.neowsapp.com/rest/v1/neo/3829488?api_key=iIulBulltgU6a56xZRHN4H3l9WmuAYTsLGpBGhQ2"
    },
    "id": "3829488",
    "neo_reference_id": "3829488",
    "name": "(2018 RF8)",
    "designation": "2018 RF8",
    "nasa_jpl_url": "http://ssd.jpl.nasa.gov/sbdb.cgi?sstr=3829488",
    "absolute_magnitude_h": 25.8,
    "estimated_diameter": {
        "kilometers": {
            "estimated_diameter_min": 0.0183888672,
            "estimated_diameter_max": 0.0411187571
        },
        "meters": {
            "estimated_diameter_min": 18.388867207,
            "estimated_diameter_max": 41.1187571041
        },
        "miles": {
            "estimated_diameter_min": 0.0114263088,
            "estimated_diameter_max": 0.0255500032
        },
        "feet": {
            "estimated_diameter_min": 60.3309310875,
            "estimated_diameter_max": 134.9040630575
        }
    },
    "is_potentially_hazardous_asteroid": false,
    "close_approach_data": [
        {
            "close_approach_date": "2008-09-06",
            "close_approach_date_full": "2008-Sep-06 04:39",
            "epoch_date_close_approach": 1220675940000,
            "relative_velocity": {
                "kilometers_per_second": "22.2963430198",
                "kilometers_per_hour": "80266.8348712163",
                "miles_per_hour": "49874.689700951"
            },
            "miss_distance": {
                "astronomical": "0.2318284314",
                "lunar": "90.1812598146",
                "kilometers": "34681039.542881118",
                "miles": "21549798.6945027084"
            },
            "orbiting_body": "Earth"
        },
        {
            "close_approach_date": "2013-09-12",
            "close_approach_date_full": "2013-Sep-12 16:25",
            "epoch_date_close_approach": 1379003100000,
            "relative_velocity": {
                "kilometers_per_second": "18.8781322969",
                "kilometers_per_hour": "67961.2762687187",
                "miles_per_hour": "42228.4941348602"
            },
            "miss_distance": {
                "astronomical": "0.1101849951",
                "lunar": "42.8619630939",
                "kilometers": "16483440.572920437",
                "miles": "10242335.0286265506"
            },
            "orbiting_body": "Earth"
        },
        {
            "close_approach_date": "2018-09-19",
            "close_approach_date_full": "2018-Sep-19 02:51",
            "epoch_date_close_approach": 1537325460000,
            "relative_velocity": {
                "kilometers_per_second": "16.5977576028",
                "kilometers_per_hour": "59751.9273700379",
                "miles_per_hour": "37127.5239816771"
            },
            "miss_distance": {
                "astronomical": "0.0015419376",
                "lunar": "0.5998137264",
                "kilometers": "230670.580632912",
                "miles": "143332.0524097056"
            },
            "orbiting_body": "Moon"
        },
        {
            "close_approach_date": "2018-09-19",
            "close_approach_date_full": "2018-Sep-19 05:38",
            "epoch_date_close_approach": 1537335480000,
            "relative_velocity": {
                "kilometers_per_second": "15.8108253127",
                "kilometers_per_hour": "56918.9711258129",
                "miles_per_hour": "35367.2351420363"
            },
            "miss_distance": {
                "astronomical": "0.0035221283",
                "lunar": "1.3701079087",
                "kilometers": "526902.891546721",
                "miles": "327402.2749619098"
            },
            "orbiting_body": "Earth"
        },
        {
            "close_approach_date": "2025-07-28",
            "close_approach_date_full": "2025-Jul-28 16:50",
            "epoch_date_close_approach": 1753721400000,
            "relative_velocity": {
                "kilometers_per_second": "18.0501596137",
                "kilometers_per_hour": "64980.5746093337",
                "miles_per_hour": "40376.402039894"
            },
            "miss_distance": {
                "astronomical": "0.1289438435",
                "lunar": "50.1591551215",
                "kilometers": "19289724.337213345",
                "miles": "11986078.901280361"
            },
            "orbiting_body": "Venus"
        }
    ],
    "orbital_data": {
        "orbit_id": "4",
        "orbit_determination_date": "2018-09-19 07:00:25",
        "first_observation_date": "2018-09-15",
        "last_observation_date": "2018-09-18",
        "data_arc_in_days": 3,
        "observations_used": 70,
        "orbit_uncertainty": "7",
        "minimum_orbit_intersection": ".000193657",
        "jupiter_tisserand_invariant": "4.537",
        "epoch_osculation": "2459000.5",
        "eccentricity": ".5148807597459473",
        "semi_major_axis": "1.421089960039997",
        "inclination": "12.29470615915753",
        "ascending_node_longitude": "175.9294454876313",
        "orbital_period": "618.7721857789116",
        "perihelion_distance": ".6893980817472657",
        "perihelion_argument": "265.4673786104591",
        "aphelion_distance": "2.152781838332729",
        "perihelion_time": "2459053.039181644393",
        "mean_anomaly": "329.4328448713762",
        "mean_motion": ".5817973210072966",
        "equinox": "J2000",
        "orbit_class": {
            "orbit_class_type": "APO",
            "orbit_class_description": "Near-Earth asteroid orbits which cross the Earth’s orbit similar to that of 1862 Apollo",
            "orbit_class_range": "a (semi-major axis) > 1.0 AU; q (perihelion) < 1.017 AU"
        }
    },
    "is_sentry_object": false
}